STARLINK-31564          
1 59526U 24073R   25335.50948110  .00000735  00000+0  36242-4 0  9994
2 59526  43.0001 152.1928 0001121 267.8069  92.2654 15.27577574 91163
STARLINK-31452          
1 59527U 24073S   25335.48777822  .00000536  00000+0  29015-4 0  9991
2 59527  43.0024 152.8961 0001430 276.2879  83.7810 15.27578140 91157
STARLINK-31618          
1 59528U 24073T   25335.09280025  .01037338  59633-3  12789-2 0  9992
2 59528  42.9757 123.4156 0022507 323.0899  36.8432 16.06560918 91454
STARLINK-31513          
1 59529U 24073U   25335.48569017  .00000340  00000+0  21888-4 0  9991
2 59529  43.0012 149.3764 0001920 266.8821  93.1811 15.27574162 91194
STARLINK-31392          
1 59530U 24073V   25335.46978959  .00001867  00000+0  77346-4 0  9995
2 59530  42.9995 152.7554 0001051 304.9514  55.1239 15.27579921 91153
STARLINK-31619          
1 59531U 24073W   25335.52104433 -.00000710  00000+0 -16292-4 0  9992
2 59531  43.0006 152.2810 0000900 264.4944  95.5805 15.27571706 92283
STARLINK-31509          
1 59533U 24073Y   25335.49549709  .00000971  00000+0  44778-4 0  9996
2 59533  43.0035 152.9621 0000915 241.6345 118.4415 15.27584317 91151
STARLINK-31734          
1 59534U 24074A   25334.97821289  .00000071  00000+0  12111-4 0  9993
2 59534  43.0001 170.0985 0001205 271.9654  88.1060 15.27592103 91040
STARLINK-31738          
1 59535U 24074B   25335.25677750  .00000618  00000+0  31975-4 0  9994
2 59535  42.9988 175.5899 0001103 276.1166  83.9560 15.27576590 91005
STARLINK-31721          
1 59536U 24074C   25335.25887373 -.00000117  00000+0  52591-5 0  9992
2 59536  43.0003 179.1473 0001152 272.2931  87.7789 15.27581899 90962
STARLINK-31737          
1 59537U 24074D   25335.27302918 -.00001487  00000+0 -44558-4 0  9997
2 59537  42.9947 179.2581 0001424 260.0418 100.0273 15.27562453 90968
STARLINK-31725          
1 59538U 24074E   25334.95133110  .00002215  00000+0  89989-4 0  9993
2 59538  43.0015 170.4766 0001512 270.0181  90.0497 15.27584135 91037
STARLINK-31539          
1 59539U 24074F   25335.28457904  .00004194  00000+0  16193-3 0  9995
2 59539  43.0018 179.3440 0001197 272.4259  87.6456 15.27560544 90965
STARLINK-31397          
1 59540U 24074G   25335.29871023  .00000174  00000+0  15846-4 0  9999
2 59540  43.0003 179.4511 0001268 264.8894  95.1812 15.27574898 90967
STARLINK-31481          
1 59541U 24074H   25334.98319052  .00001367  00000+0  59182-4 0  9990
2 59541  43.0004 180.5175 0001122 246.2363 113.8371 15.27581660 90921
STARLINK-31540          
1 59542U 24074J   25335.00117640  .00000932  00000+0  43385-4 0  9999
2 59542  42.9991 180.6529 0001187 271.8107  88.2608 15.27583770 90922
STARLINK-31574          
1 59543U 24074K   25335.28843321 -.00000023  00000+0  86763-5 0  9992
2 59543  42.9993 179.3707 0000487 293.4175  66.6625 15.27574663 90969
STARLINK-31556          
1 59544U 24074L   25334.96406307  .00001031  00000+0  46986-4 0  9997
2 59544  43.0013 181.2441 0000962 273.1924  86.8817 15.27580454 90914
STARLINK-31582          
1 59545U 24074M   25334.97563468  .00000497  00000+0  27589-4 0  9994
2 59545  43.0016 181.3234 0001114 258.9669 101.1057 15.27576097 90911
STARLINK-31519          
1 59546U 24074N   25334.98963194  .00001376  00000+0  59520-4 0  9993
2 59546  43.0000 180.5651 0001112 282.7786  77.2941 15.27582620 90927
STARLINK-31736          
1 59547U 24074P   25335.27655338  .00001921  00000+0  79346-4 0  9999
2 59547  43.0015 172.3563 0000968 247.9103 112.1646 15.27562371 91045
STARLINK-31675          
1 59548U 24074Q   25335.00503503  .00001343  00000+0  58320-4 0  9994
2 59548  42.9994 180.6799 0001165 269.7234  90.3484 15.27579592 90926
STARLINK-31722          
1 59549U 24074R   25334.98576259  .00003246  00000+0  12741-3 0  9999
2 59549  42.9988 180.5348 0000984 255.5778 104.4965 15.27582277 90928
STARLINK-31741          
1 59550U 24074S   25334.99348844  .00007145  00000+0  26888-3 0  9998
2 59550  42.9992 180.5929 0001035 255.0342 105.0395 15.27585956 90921
STARLINK-31699          
1 59551U 24074T   25335.26915307  .00000607  00000+0  31569-4 0  9993
2 59551  43.0000 179.2218 0000999 275.9620  84.1118 15.27579746 90962
STARLINK-31750          
1 59552U 24074U   25335.28071329  .00001249  00000+0  54894-4 0  9992
2 59552  43.0020 179.3122 0001571 284.5754  75.4924 15.27581965 90965
STARLINK-31723          
1 59553U 24074V   25334.94993013  .00004223  00000+0  16287-3 0  9996
2 59553  42.9992 181.1288 0001024 276.9827  83.0909 15.27581832 90911
STARLINK-31724          
1 59554U 24074W   25335.47505456  .00000963  00000+0  44505-4 0  9998
2 59554  43.0012 142.1470 0000813 231.9269 128.1509 15.27575056 91406
STARLINK-31730          
1 59555U 24074X   25334.97948359  .00002309  00000+0  93405-4 0  9995
2 59555  43.0018 181.3492 0001513 281.2556  78.8125 15.27582992 90914
STARLINK-31718          
1 59556U 24074Y   25335.29485484  .00000534  00000+0  28919-4 0  9993
2 59556  43.0015 179.4199 0001270 274.8788  85.1919 15.27575889 90963
YAOGAN-42 02            
1 59557U 24075A   25332.45432213  .00014389  00000+0  60205-3 0  9998
2 59557  34.9996  91.9628 0006436 150.0545 210.0539 15.22738144 89461
STARLINK-31747          
1 59564U 24076A   25335.33921705  .00000996  00000+0  45725-4 0  9996
2 59564  43.0046 193.8502 0002024 263.8735  96.1886 15.27578016 91570
STARLINK-31388          
1 59565U 24076B   25335.04424834  .00001544  00000+0  65633-4 0  9996
2 59565  43.0050 206.3333 0001134 283.1134  76.9591 15.27579329 91417
STARLINK-31332          
1 59566U 24076C   25335.33776972 -.00000175  00000+0  31578-5 0  9994
2 59566  42.9994 204.2135 0000560 274.7399  85.3388 15.27576186 91462
STARLINK-31689          
1 59567U 24076D   25335.03830452  .00001099  00000+0  49443-4 0  9990
2 59567  43.0024 202.8152 0001429 271.7174  88.3514 15.27577963 91452
STARLINK-31471          
1 59568U 24076E   25335.34418870  .00001084  00000+0  48894-4 0  9994
2 59568  43.0029 204.2608 0001210 284.0745  75.9972 15.27582350 91376
STARLINK-31470          
1 59569U 24076F   25335.35881557  .00000041  00000+0  11010-4 0  9994
2 59569  43.0055 200.9200 0001068 268.3531  91.7198 15.27571959 91410
STARLINK-31587          
1 59570U 24076G   25335.36731985  .00000338  00000+0  21827-4 0  9992
2 59570  43.0054 204.4400 0001772 258.3607 101.7046 15.27577169 91487
STARLINK-31606          
1 59571U 24076H   25335.50006943  .00040691  00000+0  14815-2 0  9991
2 59571  42.9998 203.1102 0001455 266.9883 344.4936 15.27547192  5850
STARLINK-31666          
1 59572U 24076J   25335.02595100 -.00003614  00000+0 -12195-3 0  9993
2 59572  43.0010 199.2280 0000505 290.4654  69.6143 15.27563580 91493
STARLINK-31683          
1 59573U 24076K   25334.95315652  .00002253  00000+0  91347-4 0  9990
2 59573  43.0001 206.4873 0000892 281.3967  78.6784 15.27580916 91402
STARLINK-31751          
1 59574U 24076L   25335.05196165  .00006620  00000+0  24992-3 0  9992
2 59574  43.0006 206.3849 0001117 276.4703  83.6021 15.27571344 91410
STARLINK-31510          
1 59575U 24076M   25335.36138833 -.00000398  00000+0 -49278-5 0  9999
2 59575  43.0039 200.9449 0001273 277.6131  82.4576 15.27568769 91503
STARLINK-31663          
1 59576U 24076N   25335.04809981  .00003029  00000+0  11955-3 0  9995
2 59576  43.0016 206.3434 0001069 276.3000  83.7729 15.27575484 91413
STARLINK-31692          
1 59577U 24076P   25335.36217635  .00000719  00000+0  35660-4 0  9993
2 59577  43.0018 204.3695 0000935 269.6272  90.4472 15.27575693 91467
STARLINK-31685          
1 59578U 24076Q   25335.32748700  .00000078  00000+0  12351-4 0  9992
2 59578  42.9994 204.1258 0001146 268.1780  91.8941 15.27575258 91468
STARLINK-31686          
1 59579U 24076R   25335.06979018 -.00003117  00000+0 -10374-3 0  9993
2 59579  43.0011 205.6359 0001223 272.6145  87.4567 15.27601480 91428
STARLINK-31668          
1 59580U 24076S   25335.05824133  .00011113  00000+0  41299-3 0  9994
2 59580  42.9981 205.5568 0001372 256.5040 103.5659 15.27560076 91422
STARLINK-31690          
1 59581U 24076T   25335.34162292 -.00000017  00000+0  88859-5 0  9995
2 59581  43.0005 204.2404 0000994 273.7828  86.2910 15.27573898 91479
STARLINK-31701          
1 59582U 24076U   25335.35708997  .00051193  00000+0  18506-2 0  9994
2 59582  42.9923 204.3613 0002222  73.7467 286.3628 15.27691890 91374
STARLINK-31697          
1 59583U 24076V   25334.95700930  .00001369  00000+0  59268-4 0  9991
2 59583  43.0029 206.5145 0000848 279.1761  80.8995 15.27582085 91312
STARLINK-31662          
1 59584U 24076W   25335.36346536  .00001242  00000+0  54649-4 0  9994
2 59584  43.0005 204.4076 0001302 264.2366  95.8337 15.27578866 91463
STARLINK-31702          
1 59585U 24076X   25335.05324472  .00010883  00000+0  40456-3 0  9997
2 59585  43.0004 206.3793 0001336 281.2525  78.8176 15.27568994 91411
STARLINK-31704          
1 59586U 24076Y   25335.49839926 -.00000241  00000+0  75263-6 0  9996
2 59586  43.0012 160.0256 0001182 266.4229  93.6487 15.27570400 91972
NEONSAT-1               
1 59587U 24077A   25335.52852337  .00013043  00000+0  41147-3 0  9997
2 59587  97.3677  54.7841 0011008  27.0025 333.1787 15.32933526 89390
ACS3                    
1 59588U 24077B   25335.41237163  .00036468  00000+0  31596-1 0  9991
2 59588  97.2795 293.5460 0076301   1.4076 358.7286 13.84668943 80571
GSAT0225 (GALILEO 29)   
1 59598U 24079A   25335.14538046  .00000041  00000+0  00000+0 0  9990
2 59598  54.9941 106.6197 0002155 171.5653 190.7741  1.70474544  9948
GSAT0227 (GALILEO 30)   
1 59600U 24079C   25334.15179932  .00000048  00000+0  00000+0 0  9996
2 59600  54.9888 106.6465 0003486 113.1426 246.8704  1.70474636  9975
STARLINK-31770          
1 59601U 24080A   25335.44187774  .00003862  00000+0  14972-3 0  9999
2 59601  43.0031 233.0439 0001270 262.3846  97.6862 15.27597510 90716
